$$SOE
2460154.500000000, A.D. 2023-Jul-29 00:00:00.0000, 4.910595667233775E+08, 7.685682876474860E+07, -7.496757347694558E+07,
2460161.500000000, A.D. 2023-Aug-05 00:00:00.0000, 4.895299741320817E+08, 8.634117179060978E+07, -7.576898428786202E+07,
2460168.500000000, A.D. 2023-Aug-12 00:00:00.0000, 4.878135484500005E+08, 9.579286662577741E+07, -7.654139211457507E+07,
2460175.500000000, A.D. 2023-Aug-19 00:00:00.0000, 4.859111226164495E+08, 1.052083437482462E+08, -7.728452699023326E+07,
2460182.500000000, A.D. 2023-Aug-26 00:00:00.0000, 4.838235913997824E+08, 1.145840522395445E+08, -7.799812932901664E+07,
2460189.500000000, A.D. 2023-Sep-02 00:00:00.0000, 4.815519109337036E+08, 1.239164606391892E+08, -7.868194995649117E+07,
2460196.500000000, A.D. 2023-Sep-09 00:00:00.0000, 4.790970982676655E+08, 1.332020576778234E+08, -7.933575015114863E+07,
2460203.500000000, A.D. 2023-Sep-16 00:00:00.0000, 4.764602310998160E+08, 1.424373528306372E+08, -7.995930171735781E+07,
2460210.500000000, A.D. 2023-Sep-23 00:00:00.0000, 4.736424481079716E+08, 1.516188769770534E+08, -8.055238710424128E+07,
2460217.500000000, A.D. 2023-Sep-30 00:00:00.0000, 4.706449495366127E+08, 1.607431843571911E+08, -8.111479944131523E+07,
2460224.500000000, A.D. 2023-Oct-07 00:00:00.0000, 4.674689956846011E+08, 1.698068552841988E+08, -8.164634231877589E+07,
2460231.500000000, A.D. 2023-Oct-14 00:00:00.0000, 4.641159043348913E+08, 1.788064963012060E+08, -8.214682967877674E+07,
2460238.500000000, A.D. 2023-Oct-21 00:00:00.0000, 4.605870503555231E+08, 1.877387393857824E+08, -8.261608598296338E+07,
2460245.500000000, A.D. 2023-Oct-28 00:00:00.0000, 4.568838660470531E+08, 1.966002424624965E+08, -8.305394634067196E+07,
2460252.500000000, A.D. 2023-Nov-04 00:00:00.0000, 4.530078409865842E+08, 2.053876904539914E+08, -8.346025654598467E+07,
2460259.500000000, A.D. 2023-Nov-11 00:00:00.0000, 4.489605215463366E+08, 2.140977962712232E+08, -8.383487308890915E+07,
2460266.500000000, A.D. 2023-Nov-18 00:00:00.0000, 4.447435103063817E+08, 2.227273016789202E+08, -8.417766316599192E+07,
2460273.500000000, A.D. 2023-Nov-25 00:00:00.0000, 4.403584654343085E+08, 2.312729780591749E+08, -8.448850469510774E+07,
2460280.500000000, A.D. 2023-Dec-02 00:00:00.0000, 4.358071000598949E+08, 2.397316270623502E+08, -8.476728633785245E+07,
2460287.500000000, A.D. 2023-Dec-09 00:00:00.0000, 4.310911817225562E+08, 2.481000810867866E+08, -8.501390754148382E+07,
2460294.500000000, A.D. 2023-Dec-16 00:00:00.0000, 4.262125321792179E+08, 2.563752036001247E+08, -8.522827862584639E+07,
2460301.500000000, A.D. 2023-Dec-23 00:00:00.0000, 4.211730279208246E+08, 2.645538899892875E+08, -8.541032089109819E+07,
2460308.500000000, A.D. 2023-Dec-30 00:00:00.0000, 4.159746000556412E+08, 2.726330699878833E+08, -8.555996653721872E+07,
2460315.500000000, A.D. 2024-Jan-06 00:00:00.0000, 4.106192317858213E+08, 2.806097093217242E+08, -8.567715842557891E+07,
2460322.500000000, A.D. 2024-Jan-13 00:00:00.0000, 4.051089566512559E+08, 2.884808087667545E+08, -8.576185012194140E+07,
2460329.500000000, A.D. 2024-Jan-20 00:00:00.0000, 3.994458587641917E+08, 2.962434037032324E+08, -8.581400608128187E+07,
2460336.500000000, A.D. 2024-Jan-27 00:00:00.0000, 3.936320730045466E+08, 3.038945648181461E+08, -8.583360173491296E+07,
2460343.500000000, A.D. 2024-Feb-03 00:00:00.0000, 3.876697847468077E+08, 3.114313990077258E+08, -8.582062351818669E+07,
2460350.500000000, A.D. 2024-Feb-10 00:00:00.0000, 3.815612293954968E+08, 3.188510501893801E+08, -8.577506888812917E+07,
2460357.500000000, A.D. 2024-Feb-17 00:00:00.0000, 3.753086918675368E+08, 3.261507000313171E+08, -8.569694634315693E+07,
2460364.500000000, A.D. 2024-Feb-24 00:00:00.0000, 3.689145060570517E+08, 3.333275686149434E+08, -8.558627544698238E+07,
2460371.500000000, A.D. 2024-Mar-02 00:00:00.0000, 3.623810543115392E+08, 3.403789149978688E+08, -8.544308686203101E+07,
2460378.500000000, A.D. 2024-Mar-09 00:00:00.0000, 3.557107670579301E+08, 3.473020376151350E+08, -8.526742241022490E+07,
2460385.500000000, A.D. 2024-Mar-16 00:00:00.0000, 3.489061229738643E+08, 3.540942747163700E+08, -8.505933518131952E+07,
2460392.500000000, A.D. 2024-Mar-23 00:00:00.0000, 3.419696496005594E+08, 3.607530059475332E+08, -8.481888958856648E+07,
2460399.500000000, A.D. 2024-Mar-30 00:00:00.0000, 3.349039221545914E+08, 3.672756550496726E+08, -8.454616116769251E+07,
2460406.500000000, A.D. 2024-Apr-06 00:00:00.0000, 3.277115607935203E+08, 3.736596903085980E+08, -8.424123641763775E+07,
2460413.500000000, A.D. 2024-Apr-13 00:00:00.0000, 3.203952298877684E+08, 3.799026235933763E+08, -8.390421294088443E+07,
2460420.500000000, A.D. 2024-Apr-20 00:00:00.0000, 3.129576383468318E+08, 3.860020106597027E+08, -8.353519957717696E+07,
2460427.500000000, A.D. 2024-Apr-27 00:00:00.0000, 3.054015394820877E+08, 3.919554521565552E+08, -8.313431643697160E+07,
2460434.500000000, A.D. 2024-May-04 00:00:00.0000, 2.977297304939050E+08, 3.977605946331489E+08, -8.270169489995049E+07,
2460441.500000000, A.D. 2024-May-11 00:00:00.0000, 2.899450518215627E+08, 4.034151314446627E+08, -8.223747760858905E+07,
2460448.500000000, A.D. 2024-May-18 00:00:00.0000, 2.820503864380965E+08, 4.089168035782333E+08, -8.174181846219794E+07,
2460455.500000000, A.D. 2024-May-25 00:00:00.0000, 2.740486591145985E+08, 4.142634003915535E+08, -8.121488261373803E+07,
2460462.500000000, A.D. 2024-Jun-01 00:00:00.0000, 2.659428357130704E+08, 4.194527602060236E+08, -8.065684647885671E+07,
2460469.500000000, A.D. 2024-Jun-08 00:00:00.0000, 2.577359227530658E+08, 4.244827707314164E+08, -8.006789778091040E+07,
2460476.500000000, A.D. 2024-Jun-15 00:00:00.0000, 2.494309676508988E+08, 4.293513698679138E+08, -7.944823562369458E+07,
2460483.500000000, A.D. 2024-Jun-22 00:00:00.0000, 2.410310586261156E+08, 4.340565480610613E+08, -7.879807040342599E+07,
2460490.500000000, A.D. 2024-Jun-29 00:00:00.0000, 2.325393221526810E+08, 4.385963503886425E+08, -7.811762351363358E+07,
2460497.500000000, A.D. 2024-Jul-06 00:00:00.0000, 2.239589205995480E+08, 4.429688759103884E+08, -7.740712728759646E+07,
2460504.500000000, A.D. 2024-Jul-13 00:00:00.0000, 2.152930520118324E+08, 4.471722771060197E+08, -7.666682512697232E+07,
2460511.500000000, A.D. 2024-Jul-20 00:00:00.0000, 2.065449500477843E+08, 4.512047605491022E+08, -7.589697154052800E+07,
2460518.500000000, A.D. 2024-Jul-27 00:00:00.0000, 1.977178834151730E+08, 4.550645878561066E+08, -7.509783211094193E+07,
2460525.500000000, A.D. 2024-Aug-03 00:00:00.0000, 1.888151550795974E+08, 4.587500765351794E+08, -7.426968344530584E+07,
2460532.500000000, A.D. 2024-Aug-10 00:00:00.0000, 1.798401014101387E+08, 4.622596007298286E+08, -7.341281312500186E+07,
2460539.500000000, A.D. 2024-Aug-17 00:00:00.0000, 1.707960913093198E+08, 4.655915918790284E+08, -7.252751965771499E+07,
2460546.500000000, A.D. 2024-Aug-24 00:00:00.0000, 1.616865253548082E+08, 4.687445392713381E+08, -7.161411243621236E+07,
2460553.500000000, A.D. 2024-Aug-31 00:00:00.0000, 1.525148350680322E+08, 4.717169904314950E+08, -7.067291171982782E+07,
2460560.500000000, A.D. 2024-Sep-07 00:00:00.0000, 1.432844826747736E+08, 4.745075514660601E+08, -6.970424866224948E+07,
2460567.500000000, A.D. 2024-Sep-14 00:00:00.0000, 1.339989614429887E+08, 4.771148883644032E+08, -6.870846531260525E+07,
2460574.500000000, A.D. 2024-Sep-21 00:00:00.0000, 1.246617945694281E+08, 4.795377296666968E+08, -6.768591437035215E+07,
2460581.500000000, A.D. 2024-Sep-28 00:00:00.0000, 1.152765321262368E+08, 4.817748672692782E+08, -6.663695891270636E+07,
2460588.500000000, A.D. 2024-Oct-05 00:00:00.0000, 1.058467497356818E+08, 4.838251553699850E+08, -6.556197243140177E+07,
2460595.500000000, A.D. 2024-Oct-12 00:00:00.0000, 9.637604861294843E+07, 4.856875105345888E+08, -6.446133890287217E+07,
2460602.500000000, A.D. 2024-Oct-19 00:00:00.0000, 8.686805522614995E+07, 4.873609126125268E+08, -6.333545275345641E+07,
2460609.500000000, A.D. 2024-Oct-26 00:00:00.0000, 7.732642054048271E+07, 4.888444056997622E+08, -6.218471878206816E+07,
2460616.500000000, A.D. 2024-Nov-02 00:00:00.0000, 6.775481910328558E+07, 4.901370990001699E+08, -6.100955207607353E+07,
2460623.500000000, A.D. 2024-Nov-09 00:00:00.0000, 5.815694806620431E+07, 4.912381676060737E+08, -5.981037792757228E+07,
2460630.500000000, A.D. 2024-Nov-16 00:00:00.0000, 4.853652617004454E+07, 4.921468531981136E+08, -5.858763175242351E+07,
2460637.500000000, A.D. 2024-Nov-23 00:00:00.0000, 3.889729273894444E+07, 4.928624646143820E+08, -5.734175902032936E+07,
2460644.500000000, A.D. 2024-Nov-30 00:00:00.0000, 2.924300689179887E+07, 4.933843782459775E+08, -5.607321521844390E+07,
2460651.500000000, A.D. 2024-Dec-07 00:00:00.0000, 1.957744738994156E+07, 4.937120386796051E+08, -5.478246585249515E+07,
2460658.500000000, A.D. 2024-Dec-14 00:00:00.0000, 9.904412432487898E+06, 4.938449608114935E+08, -5.346998632223150E+07,
2460665.500000000, A.D. 2024-Dec-21 00:00:00.0000, 2.277170814364010E+05, 4.937827321905235E+08, -5.213626155957285E+07,
2460672.500000000, A.D. 2024-Dec-28 00:00:00.0000, -9.448809712216921E+06, 4.935250126205761E+08, -5.078178585198033E+07,
2460679.500000000, A.D. 2025-Jan-04 00:00:00.0000, -1.912132588605827E+07, 4.930715333988383E+08, -4.940706289492103E+07,
2460686.500000000, A.D. 2025-Jan-11 00:00:00.0000, -2.878597666864473E+07, 4.924220978508309E+08, -4.801260577086282E+07,
2460693.500000000, A.D. 2025-Jan-18 00:00:00.0000, -3.843889552333634E+07, 4.915765822424760E+08, -4.659893684542623E+07,
2460700.500000000, A.D. 2025-Jan-25 00:00:00.0000, -4.807620539011174E+07, 4.905349365935704E+08, -4.516658764133611E+07,
2460707.500000000, A.D. 2025-Feb-01 00:00:00.0000, -5.769402003580131E+07, 4.892971853613170E+08, -4.371609870950744E+07,
2460714.500000000, A.D. 2025-Feb-08 00:00:00.0000, -6.728844545447373E+07, 4.878634280120109E+08, -4.224801950043714E+07,
2460721.500000000, A.D. 2025-Feb-15 00:00:00.0000, -7.685558128987129E+07, 4.862338394593301E+08, -4.076290823963138E+07,
$$EOE